{
  "type": "FeatureCollection",
  "features": [
    {
      "type": "Feature",
      "geometry": {
        "type": "Polygon",
        "coordinates": [
          [
            [
              18.9449005,
              49.8999947
            ],
            [
              18.9451747,
              49.8999304
            ],
            [
              18.9455986,
              49.8997374
            ],
            [
              18.9461721,
              49.899523
            ],
            [
              18.9467788,
              49.8992228
            ],
            [
              18.9474107,
              49.8987241
            ],
            [
              18.9496296,
              49.8978933
            ],
            [
              18.9497212,
              49.8977646
            ],
            [
              18.9502054,
              49.8954091
            ],
            [
              18.9501892,
              49.8949691
            ],
            [
              18.9503392,
              49.894556
            ],
            [
              18.9503396,
              49.8941911
            ],
            [
              18.9499914,
              49.8934665
            ],
            [
              18.9499751,
              49.893225
            ],
            [
              18.9498921,
              49.8930909
            ],
            [
              18.9482898,
              49.892355
            ],
            [
              18.9478247,
              49.8923602
            ],
            [
              18.9475421,
              49.8924888
            ],
            [
              18.9473595,
              49.8923975
            ],
            [
              18.9469869,
              49.8912812
            ],
            [
              18.9469122,
              49.8912329
            ],
            [
              18.9466048,
              49.8912864
            ],
            [
              18.9461482,
              49.8911091
            ],
            [
              18.9459908,
              49.890771
            ],
            [
              18.9457335,
              49.8905616
            ],
            [
              18.9453183,
              49.8905292
            ],
            [
              18.9451356,
              49.8904325
            ],
            [
              18.9451694,
              49.889955
            ],
            [
              18.9450948,
              49.8897939
            ],
            [
              18.9442338,
              49.8894583
            ],
            [
              18.9435427,
              49.8893526
            ],
            [
              18.943453,
              49.8894683
            ],
            [
              18.9434505,
              49.8895902
            ],
            [
              18.9433578,
              49.889662
            ],
            [
              18.9432245,
              49.8896117
            ],
            [
              18.9431247,
              49.889489
            ],
            [
              18.9428303,
              49.8893235
            ],
            [
              18.9424625,
              49.8892883
            ],
            [
              18.9420144,
              49.8889446
            ],
            [
              18.9419289,
              49.8887783
            ],
            [
              18.9418073,
              49.8885421
            ],
            [
              18.940419,
              49.8895555
            ],
            [
              18.9407169,
              49.8904786
            ],
            [
              18.9421122,
              49.8905598
            ],
            [
              18.9421453,
              49.8906457
            ],
            [
              18.9420692,
              49.891794
            ],
            [
              18.9423513,
              49.8920249
            ],
            [
              18.9423085,
              49.8930444
            ],
            [
              18.9423159,
              49.8938064
            ],
            [
              18.9429119,
              49.8955882
            ],
            [
              18.943318,
              49.8963987
            ],
            [
              18.9435335,
              49.8968119
            ],
            [
              18.944081,
              49.8974239
            ],
            [
              18.944139,
              49.8975796
            ],
            [
              18.9441053,
              49.8979659
            ],
            [
              18.9439305,
              49.8982771
            ],
            [
              18.9439384,
              49.8986742
            ],
            [
              18.944054,
              49.8992752
            ],
            [
              18.9444854,
              49.899753
            ],
            [
              18.9449005,
              49.8999947
            ]
          ]
        ]
      },
      "properties": {
        "natural": "water",
        "water": "fishpond",
        "leisure": "fishing",
        "fishing": "permissive",
        "name": "Karpiowe-rezerwacje",
        "osm_id": 109781587,
        "osm_name": "Halcnowiec"
      }
    }
  ]
}