{
  "type": "FeatureCollection",
  "features": [
    {
      "type": "Feature",
      "geometry": {
        "type": "Polygon",
        "coordinates": [
          [
            [
              18.9644547,
              49.8923196
            ],
            [
              18.9642407,
              49.8926264
            ],
            [
              18.9642474,
              49.8926922
            ],
            [
              18.9644001,
              49.8927207
            ],
            [
              18.9645597,
              49.8925301
            ],
            [
              18.9646853,
              49.8924139
            ],
            [
              18.9646684,
              49.8923723
            ],
            [
              18.9644547,
              49.8923196
            ]
          ]
        ]
      },
      "properties": {
        "natural": "water",
        "water": "pond",
        "osm_id": 109781540
      }
    },
    {
      "type": "Feature",
      "geometry": {
        "type": "Polygon",
        "coordinates": [
          [
            [
              18.9646211,
              49.8920676
            ],
            [
              18.964845,
              49.8921422
            ],
            [
              18.9648925,
              49.8921356
            ],
            [
              18.9649264,
              49.8920983
            ],
            [
              18.9648892,
              49.8920545
            ],
            [
              18.9647162,
              49.8919887
            ],
            [
              18.9646211,
              49.8920676
            ]
          ]
        ]
      },
      "properties": {
        "natural": "water",
        "water": "pond",
        "osm_id": 109781546
      }
    },
    {
      "type": "Feature",
      "geometry": {
        "type": "Polygon",
        "coordinates": [
          [
            [
              18.9405506,
              49.890602
            ],
            [
              18.9402362,
              49.8896145
            ],
            [
              18.9389405,
              49.889587
            ],
            [
              18.9387661,
              49.8896352
            ],
            [
              18.9383082,
              49.8904613
            ],
            [
              18.9382498,
              49.8906383
            ],
            [
              18.9380586,
              49.890826
            ],
            [
              18.937078,
              49.8911689
            ],
            [
              18.9370613,
              49.891244
            ],
            [
              18.9375508,
              49.8916575
            ],
            [
              18.9377825,
              49.892323
            ],
            [
              18.9395937,
              49.8919752
            ],
            [
              18.94177,
              49.8918743
            ],
            [
              18.9419113,
              49.8918046
            ],
            [
              18.941887,
              49.8913432
            ],
            [
              18.9419871,
              49.8909247
            ],
            [
              18.9419874,
              49.8906939
            ],
            [
              18.941921,
              49.8906402
            ],
            [
              18.9405506,
              49.890602
            ]
          ]
        ]
      },
      "properties": {
        "natural": "water",
        "water": "basin",
        "osm_id": 109781548
      }
    },
    {
      "type": "Feature",
      "geometry": {
        "type": "Polygon",
        "coordinates": [
          [
            [
              18.9554429,
              49.8948296
            ],
            [
              18.9554914,
              49.8950024
            ],
            [
              18.9560828,
              49.8950288
            ],
            [
              18.9605316,
              49.8947006
            ],
            [
              18.9609612,
              49.8945908
            ],
            [
              18.9612368,
              49.8943816
            ],
            [
              18.961242,
              49.8941268
            ],
            [
              18.9611288,
              49.8937552
            ],
            [
              18.960776,
              49.8931356
            ],
            [
              18.9603873,
              49.8928162
            ],
            [
              18.9601607,
              49.8925491
            ],
            [
              18.9595128,
              49.892104
            ],
            [
              18.9589051,
              49.8921718
            ],
            [
              18.9585486,
              49.8921612
            ],
            [
              18.958346,
              49.8922606
            ],
            [
              18.9564891,
              49.893825
            ],
            [
              18.9554429,
              49.8948296
            ]
          ]
        ]
      },
      "properties": {
        "natural": "water",
        "water": "basin",
        "osm_id": 109781551
      }
    },
    {
      "type": "Feature",
      "geometry": {
        "type": "Polygon",
        "coordinates": [
          [
            [
              18.9636268,
              49.8922953
            ],
            [
              18.9641767,
              49.892394
            ],
            [
              18.964263,
              49.8922741
            ],
            [
              18.9636932,
              49.8920813
            ],
            [
              18.9636268,
              49.8922953
            ]
          ]
        ]
      },
      "properties": {
        "natural": "water",
        "water": "pond",
        "osm_id": 109781560
      }
    },
    {
      "type": "Feature",
      "geometry": {
        "type": "Polygon",
        "coordinates": [
          [
            [
              18.9563029,
              49.8936575
            ],
            [
              18.9563676,
              49.8937255
            ],
            [
              18.9564811,
              49.8936889
            ],
            [
              18.958111,
              49.8922553
            ],
            [
              18.9583785,
              49.8920879
            ],
            [
              18.9583786,
              49.8919989
            ],
            [
              18.9581357,
              49.891758
            ],
            [
              18.9579335,
              49.8913758
            ],
            [
              18.9578121,
              49.8912711
            ],
            [
              18.9550095,
              49.8903121
            ],
            [
              18.9552195,
              49.8910712
            ],
            [
              18.9553325,
              49.8915633
            ],
            [
              18.9554294,
              49.8918879
            ],
            [
              18.9563029,
              49.8936575
            ]
          ]
        ]
      },
      "properties": {
        "natural": "water",
        "water": "basin",
        "osm_id": 109781561
      }
    },
    {
      "type": "Feature",
      "geometry": {
        "type": "Polygon",
        "coordinates": [
          [
            [
              18.9645056,
              49.8922473
            ],
            [
              18.9647193,
              49.8923328
            ],
            [
              18.9647838,
              49.8923
            ],
            [
              18.9648449,
              49.8922057
            ],
            [
              18.9648382,
              49.8921838
            ],
            [
              18.9645871,
              49.8921114
            ],
            [
              18.9645056,
              49.8922473
            ]
          ]
        ]
      },
      "properties": {
        "natural": "water",
        "water": "pond",
        "osm_id": 109781563
      }
    },
    {
      "type": "Feature",
      "geometry": {
        "type": "Polygon",
        "coordinates": [
          [
            [
              18.9635472,
              49.8923809
            ],
            [
              18.9634808,
              49.8925136
            ],
            [
              18.9639844,
              49.8926123
            ],
            [
              18.9640905,
              49.8924881
            ],
            [
              18.9635472,
              49.8923809
            ]
          ]
        ]
      },
      "properties": {
        "natural": "water",
        "water": "pond",
        "osm_id": 109781566
      }
    },
    {
      "type": "Feature",
      "geometry": {
        "type": "Polygon",
        "coordinates": [
          [
            [
              18.9671111,
              49.8928048
            ],
            [
              18.9679967,
              49.8927831
            ],
            [
              18.968129,
              49.8927459
            ],
            [
              18.9685297,
              49.8922989
            ],
            [
              18.9685026,
              49.8922725
            ],
            [
              18.9668946,
              49.8917526
            ],
            [
              18.9667352,
              49.8917569
            ],
            [
              18.9670263,
              49.8927631
            ],
            [
              18.9671111,
              49.8928048
            ]
          ]
        ]
      },
      "properties": {
        "natural": "water",
        "water": "pond",
        "osm_id": 109781567
      }
    },
    {
      "type": "Feature",
      "geometry": {
        "type": "Polygon",
        "coordinates": [
          [
            [
              18.9602767,
              49.8916865
            ],
            [
              18.9597773,
              49.8920632
            ],
            [
              18.9597643,
              49.8921302
            ],
            [
              18.9603667,
              49.8925575
            ],
            [
              18.9605156,
              49.8927837
            ],
            [
              18.9606905,
              49.8929094
            ],
            [
              18.9608072,
              49.8928885
            ],
            [
              18.9609111,
              49.8926833
            ],
            [
              18.9610669,
              49.8924572
            ],
            [
              18.9612355,
              49.8922856
            ],
            [
              18.960374,
              49.8916488
            ],
            [
              18.9602767,
              49.8916865
            ]
          ]
        ]
      },
      "properties": {
        "natural": "water",
        "water": "basin",
        "osm_id": 109781575
      }
    },
    {
      "type": "Feature",
      "geometry": {
        "type": "Polygon",
        "coordinates": [
          [
            [
              18.9656079,
              49.8928373
            ],
            [
              18.9659438,
              49.8928308
            ],
            [
              18.9659947,
              49.8928111
            ],
            [
              18.9658695,
              49.8923266
            ],
            [
              18.9657746,
              49.8922411
            ],
            [
              18.9656185,
              49.8922301
            ],
            [
              18.9655914,
              49.8922586
            ],
            [
              18.9656013,
              49.8926093
            ],
            [
              18.9655808,
              49.8927561
            ],
            [
              18.9656079,
              49.8928373
            ]
          ]
        ]
      },
      "properties": {
        "natural": "water",
        "water": "pond",
        "osm_id": 109781577
      }
    },
    {
      "type": "Feature",
      "geometry": {
        "type": "Polygon",
        "coordinates": [
          [
            [
              18.9394025,
              49.8921468
            ],
            [
              18.9378654,
              49.8924572
            ],
            [
              18.9377656,
              49.8925537
            ],
            [
              18.938005,
              49.8937559
            ],
            [
              18.9381706,
              49.8941155
            ],
            [
              18.9384278,
              49.8943463
            ],
            [
              18.9387601,
              49.8943573
            ],
            [
              18.9390672,
              49.8945077
            ],
            [
              18.9398728,
              49.8946154
            ],
            [
              18.9399726,
              49.8945725
            ],
            [
              18.939527,
              49.8921576
            ],
            [
              18.9394025,
              49.8921468
            ]
          ]
        ]
      },
      "properties": {
        "natural": "water",
        "water": "basin",
        "osm_id": 109781579
      }
    },
    {
      "type": "Feature",
      "geometry": {
        "type": "Polygon",
        "coordinates": [
          [
            [
              18.9607046,
              49.8915317
            ],
            [
              18.9606851,
              49.8915903
            ],
            [
              18.9613264,
              49.8920846
            ],
            [
              18.9641205,
              49.8916919
            ],
            [
              18.9642113,
              49.8916207
            ],
            [
              18.9645424,
              49.890888
            ],
            [
              18.9644647,
              49.8908126
            ],
            [
              18.9632074,
              49.890473
            ],
            [
              18.9614567,
              49.8913309
            ],
            [
              18.9609769,
              49.8914857
            ],
            [
              18.9607046,
              49.8915317
            ]
          ]
        ]
      },
      "properties": {
        "natural": "water",
        "water": "basin",
        "osm_id": 109781584
      }
    },
    {
      "type": "Feature",
      "geometry": {
        "type": "Polygon",
        "coordinates": [
          [
            [
              18.9524188,
              49.888343
            ],
            [
              18.9528073,
              49.8887671
            ],
            [
              18.953139,
              49.8892436
            ],
            [
              18.9538677,
              49.889715
            ],
            [
              18.9547262,
              49.8900294
            ],
            [
              18.954864,
              49.8899928
            ],
            [
              18.9559036,
              49.8871875
            ],
            [
              18.9558632,
              49.8871195
            ],
            [
              18.9541457,
              49.8870508
            ],
            [
              18.9543171,
              49.8857056
            ],
            [
              18.9542199,
              49.8857003
            ],
            [
              18.9538773,
              49.8881708
            ],
            [
              18.9524188,
              49.888343
            ]
          ]
        ]
      },
      "properties": {
        "natural": "water",
        "water": "basin",
        "osm_id": 109781595
      }
    },
    {
      "type": "Feature",
      "geometry": {
        "type": "Polygon",
        "coordinates": [
          [
            [
              18.9644554,
              49.8907284
            ],
            [
              18.9645943,
              49.8907666
            ],
            [
              18.9647307,
              49.8904693
            ],
            [
              18.9642384,
              49.8899541
            ],
            [
              18.9641217,
              49.889975
            ],
            [
              18.9633566,
              49.8903935
            ],
            [
              18.96405,
              49.8906031
            ],
            [
              18.9644554,
              49.8907284
            ]
          ]
        ]
      },
      "properties": {
        "natural": "water",
        "water": "basin",
        "osm_id": 109781598
      }
    },
    {
      "type": "Feature",
      "geometry": {
        "type": "Polygon",
        "coordinates": [
          [
            [
              18.9616454,
              49.8922091
            ],
            [
              18.9615724,
              49.8922519
            ],
            [
              18.9617182,
              49.8922819
            ],
            [
              18.962732,
              49.8924406
            ],
            [
              18.9629311,
              49.8920254
            ],
            [
              18.9616454,
              49.8922091
            ]
          ]
        ]
      },
      "properties": {
        "natural": "water",
        "water": "pond",
        "osm_id": 109781602
      }
    },
    {
      "type": "Feature",
      "geometry": {
        "type": "Polygon",
        "coordinates": [
          [
            [
              18.9550052,
              49.8949656
            ],
            [
              18.9562217,
              49.8938511
            ],
            [
              18.956238,
              49.8937569
            ],
            [
              18.9551298,
              49.8916836
            ],
            [
              18.9550411,
              49.8912177
            ],
            [
              18.9548313,
              49.8903016
            ],
            [
              18.9543373,
              49.8900449
            ],
            [
              18.9532912,
              49.8910548
            ],
            [
              18.953088,
              49.8916828
            ],
            [
              18.9533383,
              49.8925466
            ],
            [
              18.9539366,
              49.8939497
            ],
            [
              18.954163,
              49.8944104
            ],
            [
              18.9545678,
              49.8948136
            ],
            [
              18.9550052,
              49.8949656
            ]
          ]
        ]
      },
      "properties": {
        "natural": "water",
        "water": "basin",
        "osm_id": 109781606
      }
    },
    {
      "type": "Feature",
      "geometry": {
        "type": "Polygon",
        "coordinates": [
          [
            [
              18.9648667,
              49.8906076
            ],
            [
              18.9643927,
              49.8916585
            ],
            [
              18.9643862,
              49.8917548
            ],
            [
              18.9651444,
              49.8920523
            ],
            [
              18.9654814,
              49.892132
            ],
            [
              18.9656888,
              49.8921321
            ],
            [
              18.9658962,
              49.8921112
            ],
            [
              18.9660648,
              49.8920652
            ],
            [
              18.9662463,
              49.8919773
            ],
            [
              18.9664604,
              49.891814
            ],
            [
              18.9665577,
              49.8917094
            ],
            [
              18.9665123,
              49.8916424
            ],
            [
              18.9657024,
              49.8912736
            ],
            [
              18.96521,
              49.8908924
            ],
            [
              18.9648667,
              49.8906076
            ]
          ]
        ]
      },
      "properties": {
        "natural": "water",
        "water": "basin",
        "osm_id": 109781613
      }
    },
    {
      "type": "Feature",
      "geometry": {
        "type": "Polygon",
        "coordinates": [
          [
            [
              18.9630039,
              49.8921667
            ],
            [
              18.963428,
              49.8922482
            ],
            [
              18.9635939,
              49.89194
            ],
            [
              18.9635807,
              49.8919143
            ],
            [
              18.9630968,
              49.892004
            ],
            [
              18.9630039,
              49.8921667
            ]
          ]
        ]
      },
      "properties": {
        "natural": "water",
        "water": "pond",
        "osm_id": 109781616
      }
    },
    {
      "type": "Feature",
      "geometry": {
        "type": "Polygon",
        "coordinates": [
          [
            [
              18.96391,
              49.8954852
            ],
            [
              18.9639365,
              49.8955494
            ],
            [
              18.9644998,
              49.8956652
            ],
            [
              18.9648377,
              49.8956953
            ],
            [
              18.9658253,
              49.8955629
            ],
            [
              18.9659049,
              49.8954901
            ],
            [
              18.9664831,
              49.8931056
            ],
            [
              18.9664103,
              49.8930114
            ],
            [
              18.9644288,
              49.8930494
            ],
            [
              18.9644484,
              49.8933576
            ],
            [
              18.96391,
              49.8954852
            ]
          ]
        ]
      },
      "properties": {
        "natural": "water",
        "water": "basin",
        "osm_id": 109781617
      }
    },
    {
      "type": "Feature",
      "geometry": {
        "type": "Polygon",
        "coordinates": [
          [
            [
              18.9581898,
              49.8914135
            ],
            [
              18.9580925,
              49.8914679
            ],
            [
              18.9583709,
              49.8918617
            ],
            [
              18.9586235,
              49.8920628
            ],
            [
              18.9588633,
              49.8920963
            ],
            [
              18.959544,
              49.8920128
            ],
            [
              18.9601212,
              49.8916613
            ],
            [
              18.9600499,
              49.8916068
            ],
            [
              18.9594535,
              49.8916275
            ],
            [
              18.9589026,
              49.8915645
            ],
            [
              18.9585721,
              49.8915142
            ],
            [
              18.9581898,
              49.8914135
            ]
          ]
        ]
      },
      "properties": {
        "natural": "water",
        "water": "basin",
        "osm_id": 109781620
      }
    },
    {
      "type": "Feature",
      "geometry": {
        "type": "Polygon",
        "coordinates": [
          [
            [
              18.9617684,
              49.894373
            ],
            [
              18.9622062,
              49.8940696
            ],
            [
              18.9616158,
              49.8927765
            ],
            [
              18.9616564,
              49.892609
            ],
            [
              18.9615836,
              49.8925095
            ],
            [
              18.9613081,
              49.8924361
            ],
            [
              18.9610405,
              49.8927711
            ],
            [
              18.9609755,
              49.8930014
            ],
            [
              18.9610724,
              49.8933207
            ],
            [
              18.9614041,
              49.8940013
            ],
            [
              18.9615011,
              49.8942787
            ],
            [
              18.9615173,
              49.8943677
            ],
            [
              18.9616226,
              49.8944096
            ],
            [
              18.9617684,
              49.894373
            ]
          ]
        ]
      },
      "properties": {
        "natural": "water",
        "water": "basin",
        "osm_id": 109781621
      }
    },
    {
      "type": "Feature",
      "geometry": {
        "type": "Polygon",
        "coordinates": [
          [
            [
              18.9560657,
              49.8871719
            ],
            [
              18.9549773,
              49.890108
            ],
            [
              18.9550664,
              49.8901865
            ],
            [
              18.9581118,
              49.8912817
            ],
            [
              18.9587113,
              49.8914546
            ],
            [
              18.9594971,
              49.891523
            ],
            [
              18.9601129,
              49.8915493
            ],
            [
              18.9602426,
              49.8914709
            ],
            [
              18.9601778,
              49.8913766
            ],
            [
              18.9601487,
              49.8874508
            ],
            [
              18.960011,
              49.8874036
            ],
            [
              18.9595816,
              49.8874035
            ],
            [
              18.9560657,
              49.8871719
            ]
          ]
        ]
      },
      "properties": {
        "natural": "water",
        "water": "basin",
        "osm_id": 109781625
      }
    },
    {
      "type": "Feature",
      "geometry": {
        "type": "Polygon",
        "coordinates": [
          [
            [
              18.9629575,
              49.8922652
            ],
            [
              18.9629043,
              49.8924621
            ],
            [
              18.9632687,
              49.8925178
            ],
            [
              18.9633551,
              49.8923167
            ],
            [
              18.9629575,
              49.8922652
            ]
          ]
        ]
      },
      "properties": {
        "natural": "water",
        "water": "pond",
        "osm_id": 109781630
      }
    },
    {
      "type": "Feature",
      "geometry": {
        "type": "Polygon",
        "coordinates": [
          [
            [
              18.9660639,
              49.8955287
            ],
            [
              18.9661699,
              49.8955715
            ],
            [
              18.9669918,
              49.8954861
            ],
            [
              18.9674294,
              49.8952679
            ],
            [
              18.968046,
              49.8948014
            ],
            [
              18.9685434,
              49.8942407
            ],
            [
              18.968842,
              49.8936628
            ],
            [
              18.9691143,
              49.8927553
            ],
            [
              18.9692934,
              49.8925712
            ],
            [
              18.9692802,
              49.8925241
            ],
            [
              18.9688826,
              49.892387
            ],
            [
              18.9687699,
              49.8924127
            ],
            [
              18.9683057,
              49.8929691
            ],
            [
              18.9681069,
              49.8929948
            ],
            [
              18.9667682,
              49.8929987
            ],
            [
              18.9666157,
              49.8930414
            ],
            [
              18.9660639,
              49.8955287
            ]
          ]
        ]
      },
      "properties": {
        "natural": "water",
        "water": "basin",
        "osm_id": 109781634
      }
    },
    {
      "type": "Feature",
      "geometry": {
        "type": "Polygon",
        "coordinates": [
          [
            [
              18.9652415,
              49.892835
            ],
            [
              18.9654688,
              49.8928241
            ],
            [
              18.965496,
              49.8928021
            ],
            [
              18.9655302,
              49.8924492
            ],
            [
              18.9655235,
              49.8922629
            ],
            [
              18.9653199,
              49.8922453
            ],
            [
              18.9652655,
              49.8924579
            ],
            [
              18.965194,
              49.892813
            ],
            [
              18.9652415,
              49.892835
            ]
          ]
        ]
      },
      "properties": {
        "natural": "water",
        "water": "pond",
        "osm_id": 109781637
      }
    },
    {
      "type": "Feature",
      "geometry": {
        "type": "Polygon",
        "coordinates": [
          [
            [
              18.9641518,
              49.8929029
            ],
            [
              18.9618266,
              49.8924887
            ],
            [
              18.9617456,
              49.8925148
            ],
            [
              18.9617454,
              49.8927661
            ],
            [
              18.9623683,
              49.8940696
            ],
            [
              18.9623034,
              49.8941429
            ],
            [
              18.9618089,
              49.8944882
            ],
            [
              18.9616306,
              49.8944829
            ],
            [
              18.9619623,
              49.8950955
            ],
            [
              18.9621243,
              49.8952264
            ],
            [
              18.9635097,
              49.8954781
            ],
            [
              18.9637204,
              49.8954677
            ],
            [
              18.9643053,
              49.8934055
            ],
            [
              18.9642328,
              49.8929344
            ],
            [
              18.9641518,
              49.8929029
            ]
          ]
        ]
      },
      "properties": {
        "natural": "water",
        "water": "basin",
        "osm_id": 109781640
      }
    },
    {
      "type": "Feature",
      "geometry": {
        "type": "Polygon",
        "coordinates": [
          [
            [
              18.9602493,
              49.8874666
            ],
            [
              18.9603094,
              49.8913689
            ],
            [
              18.9604389,
              49.8914862
            ],
            [
              18.961191,
              49.8913064
            ],
            [
              18.9620793,
              49.8909005
            ],
            [
              18.9640181,
              49.8898877
            ],
            [
              18.9640635,
              49.8897872
            ],
            [
              18.9635648,
              49.889272
            ],
            [
              18.9622372,
              49.887898
            ],
            [
              18.9619653,
              49.8875253
            ],
            [
              18.9618294,
              49.8872153
            ],
            [
              18.9602493,
              49.8874666
            ]
          ]
        ]
      },
      "properties": {
        "natural": "water",
        "water": "basin",
        "osm_id": 109781645
      }
    },
    {
      "type": "Feature",
      "geometry": {
        "type": "Polygon",
        "coordinates": [
          [
            [
              18.9544548,
              49.8857004
            ],
            [
              18.9542917,
              49.8868362
            ],
            [
              18.9543889,
              49.8869252
            ],
            [
              18.9560415,
              49.887062
            ],
            [
              18.9599057,
              49.8873094
            ],
            [
              18.9602217,
              49.8873042
            ],
            [
              18.9616964,
              49.8870378
            ],
            [
              18.9615124,
              49.8864432
            ],
            [
              18.9604087,
              49.8865348
            ],
            [
              18.9603682,
              49.8864301
            ],
            [
              18.9610003,
              49.8862838
            ],
            [
              18.9610166,
              49.8860954
            ],
            [
              18.958862,
              49.8856916
            ],
            [
              18.9584893,
              49.8857124
            ],
            [
              18.9579144,
              49.8853772
            ],
            [
              18.9575176,
              49.8852147
            ],
            [
              18.9568695,
              49.885204
            ],
            [
              18.955727,
              49.8854706
            ],
            [
              18.9553704,
              49.8856222
            ],
            [
              18.9544548,
              49.8857004
            ]
          ]
        ]
      },
      "properties": {
        "natural": "water",
        "water": "basin",
        "osm_id": 109781648
      }
    },
    {
      "type": "Feature",
      "geometry": {
        "type": "Polygon",
        "coordinates": [
          [
            [
              18.9643631,
              49.8922012
            ],
            [
              18.9645805,
              49.891936
            ],
            [
              18.9643362,
              49.891868
            ],
            [
              18.9641496,
              49.8918504
            ],
            [
              18.9638205,
              49.8918854
            ],
            [
              18.9637288,
              49.8919489
            ],
            [
              18.9637118,
              49.8920059
            ],
            [
              18.9643631,
              49.8922012
            ]
          ]
        ]
      },
      "properties": {
        "natural": "water",
        "water": "pond",
        "osm_id": 109781649
      }
    },
    {
      "type": "Feature",
      "geometry": {
        "type": "Polygon",
        "coordinates": [
          [
            [
              18.9644924,
              49.8813785
            ],
            [
              18.966058,
              49.8818834
            ],
            [
              18.9669717,
              49.8821781
            ],
            [
              18.967016,
              49.8819689
            ],
            [
              18.9668542,
              49.8817501
            ],
            [
              18.9665453,
              49.8815361
            ],
            [
              18.9663542,
              49.8812365
            ],
            [
              18.9662219,
              49.8809987
            ],
            [
              18.9650153,
              49.8807606
            ],
            [
              18.9644924,
              49.8813785
            ]
          ]
        ]
      },
      "properties": {
        "natural": "water",
        "water": "pond",
        "osm_id": 109783973
      }
    },
    {
      "type": "Feature",
      "geometry": {
        "type": "Polygon",
        "coordinates": [
          [
            [
              18.966905,
              49.882801
            ],
            [
              18.9668984,
              49.8832157
            ],
            [
              18.9668974,
              49.8832765
            ],
            [
              18.9672716,
              49.8832524
            ],
            [
              18.9675597,
              49.8832338
            ],
            [
              18.9676921,
              49.8832196
            ],
            [
              18.9677143,
              49.883134
            ],
            [
              18.9676482,
              49.8828915
            ],
            [
              18.9675085,
              49.8827631
            ],
            [
              18.966905,
              49.882801
            ]
          ]
        ]
      },
      "properties": {
        "natural": "water",
        "water": "pond",
        "osm_id": 109783979
      }
    },
    {
      "type": "Feature",
      "geometry": {
        "type": "Polygon",
        "coordinates": [
          [
            [
              18.9666913,
              49.8832812
            ],
            [
              18.9667796,
              49.8832812
            ],
            [
              18.9668238,
              49.8832194
            ],
            [
              18.9668097,
              49.8823112
            ],
            [
              18.9668466,
              49.8821923
            ],
            [
              18.9659721,
              49.8819266
            ],
            [
              18.9644188,
              49.8814546
            ],
            [
              18.9639697,
              49.881735
            ],
            [
              18.9636971,
              49.8821819
            ],
            [
              18.9637337,
              49.8824149
            ],
            [
              18.964094,
              49.8828619
            ],
            [
              18.9645574,
              49.8830951
            ],
            [
              18.9651018,
              49.8832379
            ],
            [
              18.9654918,
              49.8832951
            ],
            [
              18.9659333,
              49.8833142
            ],
            [
              18.9662939,
              49.8833048
            ],
            [
              18.9666913,
              49.8832812
            ]
          ]
        ]
      },
      "properties": {
        "natural": "water",
        "water": "pond",
        "osm_id": 109783982
      }
    },
    {
      "type": "Feature",
      "geometry": {
        "type": "Polygon",
        "coordinates": [
          [
            [
              18.9648238,
              49.8925791
            ],
            [
              18.9646621,
              49.8928049
            ],
            [
              18.964732,
              49.8928377
            ],
            [
              18.9650576,
              49.8928347
            ],
            [
              18.9650865,
              49.8927942
            ],
            [
              18.9650721,
              49.8927521
            ],
            [
              18.9651083,
              49.8926602
            ],
            [
              18.9648528,
              49.8925588
            ],
            [
              18.9648238,
              49.8925791
            ]
          ]
        ]
      },
      "properties": {
        "natural": "water",
        "water": "pond",
        "osm_id": 109784585
      }
    },
    {
      "type": "Feature",
      "geometry": {
        "type": "Polygon",
        "coordinates": [
          [
            [
              18.9649518,
              49.8924108
            ],
            [
              18.9651615,
              49.8924701
            ],
            [
              18.965222,
              49.8922676
            ],
            [
              18.9650749,
              49.8922332
            ],
            [
              18.9649518,
              49.8924108
            ]
          ]
        ]
      },
      "properties": {
        "natural": "water",
        "water": "pond",
        "osm_id": 109784589
      }
    },
    {
      "type": "Feature",
      "geometry": {
        "type": "Polygon",
        "coordinates": [
          [
            [
              18.9408553,
              49.8832557
            ],
            [
              18.9412623,
              49.8831125
            ],
            [
              18.9424423,
              49.8833725
            ],
            [
              18.9424306,
              49.8835565
            ],
            [
              18.942324,
              49.8838505
            ],
            [
              18.9421241,
              49.8841908
            ],
            [
              18.9423615,
              49.884366
            ],
            [
              18.9420721,
              49.8848202
            ],
            [
              18.9416038,
              49.8847588
            ],
            [
              18.9411488,
              49.8845914
            ],
            [
              18.9407816,
              49.8842569
            ],
            [
              18.9406443,
              49.8840786
            ],
            [
              18.9408553,
              49.8832557
            ]
          ]
        ]
      },
      "properties": {
        "natural": "water",
        "water": "pond",
        "osm_id": 184308062
      }
    },
    {
      "type": "Feature",
      "geometry": {
        "type": "Polygon",
        "coordinates": [
          [
            [
              18.9669298,
              49.8912559
            ],
            [
              18.9673201,
              49.8906325
            ],
            [
              18.9675559,
              49.8903811
            ],
            [
              18.9675966,
              49.8903025
            ],
            [
              18.966694,
              49.8896948
            ],
            [
              18.9664501,
              49.890051
            ],
            [
              18.96632,
              49.8900249
            ],
            [
              18.9662875,
              49.889941
            ],
            [
              18.9661249,
              49.8898677
            ],
            [
              18.9658484,
              49.8898677
            ],
            [
              18.9654825,
              49.8903077
            ],
            [
              18.9656207,
              49.8904544
            ],
            [
              18.965946,
              49.8903182
            ],
            [
              18.9660761,
              49.890313
            ],
            [
              18.9660517,
              49.8903915
            ],
            [
              18.965702,
              49.8905539
            ],
            [
              18.9662387,
              49.8909311
            ],
            [
              18.9669298,
              49.8912559
            ]
          ]
        ]
      },
      "properties": {
        "natural": "water",
        "water": "pond",
        "osm_id": 260194538
      }
    },
    {
      "type": "Feature",
      "geometry": {
        "type": "Polygon",
        "coordinates": [
          [
            [
              18.9684703,
              49.8846272
            ],
            [
              18.9683011,
              49.8846114
            ],
            [
              18.96802,
              49.8846126
            ],
            [
              18.9679558,
              49.8845979
            ],
            [
              18.9679442,
              49.884547
            ],
            [
              18.9679772,
              49.8844987
            ],
            [
              18.9680443,
              49.8844962
            ],
            [
              18.9683781,
              49.8844945
            ],
            [
              18.9685093,
              49.8845316
            ],
            [
              18.9685326,
              49.8846035
            ],
            [
              18.9684703,
              49.8846272
            ]
          ]
        ]
      },
      "properties": {
        "natural": "water",
        "water": "water",
        "osm_id": 388146169
      }
    },
    {
      "type": "Feature",
      "geometry": {
        "type": "Polygon",
        "coordinates": [
          [
            [
              18.9404053,
              49.8869157
            ],
            [
              18.941307,
              49.8854019
            ],
            [
              18.9412341,
              49.8853934
            ],
            [
              18.940903,
              49.8856408
            ],
            [
              18.9404262,
              49.8861784
            ],
            [
              18.9399491,
              49.8864322
            ],
            [
              18.9399344,
              49.8867451
            ],
            [
              18.9400227,
              49.8868873
            ],
            [
              18.9404053,
              49.8869157
            ]
          ]
        ]
      },
      "properties": {
        "natural": "water",
        "water": "pond",
        "osm_id": 429766862
      }
    },
    {
      "type": "Feature",
      "geometry": {
        "type": "Polygon",
        "coordinates": [
          [
            [
              18.9665469,
              49.8927765
            ],
            [
              18.9665802,
              49.8928101
            ],
            [
              18.9669199,
              49.8928101
            ],
            [
              18.966947,
              49.8927899
            ],
            [
              18.9666156,
              49.8918541
            ],
            [
              18.9663572,
              49.8920475
            ],
            [
              18.9663551,
              49.8920743
            ],
            [
              18.9665427,
              49.892708
            ],
            [
              18.9665469,
              49.8927765
            ]
          ]
        ]
      },
      "properties": {
        "natural": "water",
        "water": "pond",
        "osm_id": 807866524
      }
    },
    {
      "type": "Feature",
      "geometry": {
        "type": "Polygon",
        "coordinates": [
          [
            [
              18.9660855,
              49.8928017
            ],
            [
              18.9661154,
              49.8928221
            ],
            [
              18.9664346,
              49.8928209
            ],
            [
              18.9664775,
              49.8928017
            ],
            [
              18.9664756,
              49.8927355
            ],
            [
              18.966429,
              49.8925744
            ],
            [
              18.9662516,
              49.8920754
            ],
            [
              18.9658709,
              49.892198
            ],
            [
              18.9659343,
              49.8922762
            ],
            [
              18.9660855,
              49.8928017
            ]
          ]
        ]
      },
      "properties": {
        "natural": "water",
        "water": "pond",
        "osm_id": 807866525
      }
    },
    {
      "type": "Feature",
      "geometry": {
        "type": "Polygon",
        "coordinates": [
          [
            [
              18.9411935,
              49.8851863
            ],
            [
              18.941238,
              49.8852629
            ],
            [
              18.9413106,
              49.8852834
            ],
            [
              18.9414008,
              49.8852663
            ],
            [
              18.9414698,
              49.8851626
            ],
            [
              18.9415565,
              49.8849961
            ],
            [
              18.9415389,
              49.8849425
            ],
            [
              18.9414999,
              49.8849106
            ],
            [
              18.9414521,
              49.8848912
            ],
            [
              18.9413246,
              49.8849565
            ],
            [
              18.9411935,
              49.8851863
            ]
          ]
        ]
      },
      "properties": {
        "natural": "water",
        "water": "pond",
        "osm_id": 1339610058
      }
    },
    {
      "type": "Feature",
      "geometry": {
        "type": "Polygon",
        "coordinates": [
          [
            [
              18.9230735,
              49.885371
            ],
            [
              18.9243269,
              49.8868342
            ],
            [
              18.9244121,
              49.8868493
            ],
            [
              18.9255535,
              49.885603
            ],
            [
              18.9255614,
              49.8855029
            ],
            [
              18.9257242,
              49.8854529
            ],
            [
              18.9270277,
              49.8845873
            ],
            [
              18.9270744,
              49.8845122
            ],
            [
              18.9265327,
              49.8839309
            ],
            [
              18.9254717,
              49.8833643
            ],
            [
              18.9230504,
              49.8852909
            ],
            [
              18.9230735,
              49.885371
            ]
          ]
        ]
      },
      "properties": {
        "natural": "water",
        "water": "pond",
        "osm_id": 109775716
      }
    },
    {
      "type": "Feature",
      "geometry": {
        "type": "Polygon",
        "coordinates": [
          [
            [
              18.9192919,
              49.8821702
            ],
            [
              18.9193458,
              49.8822635
            ],
            [
              18.9197217,
              49.8825531
            ],
            [
              18.9198232,
              49.8825838
            ],
            [
              18.9201691,
              49.8826442
            ],
            [
              18.920638,
              49.8827947
            ],
            [
              18.9209725,
              49.8829579
            ],
            [
              18.9210854,
              49.8829606
            ],
            [
              18.9215608,
              49.8827319
            ],
            [
              18.9219058,
              49.8824372
            ],
            [
              18.9222232,
              49.8821093
            ],
            [
              18.9225008,
              49.8816692
            ],
            [
              18.9224325,
              49.8816355
            ],
            [
              18.9217845,
              49.8816083
            ],
            [
              18.9213838,
              49.881632
            ],
            [
              18.9206401,
              49.8817622
            ],
            [
              18.9203326,
              49.8817934
            ],
            [
              18.9201067,
              49.8817889
            ],
            [
              18.9197287,
              49.8817277
            ],
            [
              18.9196127,
              49.8817342
            ],
            [
              18.919521,
              49.8817812
            ],
            [
              18.9192964,
              49.8820819
            ],
            [
              18.9192919,
              49.8821702
            ]
          ]
        ]
      },
      "properties": {
        "natural": "water",
        "water": "pond",
        "osm_id": 109781609
      }
    },
    {
      "type": "Feature",
      "geometry": {
        "type": "Polygon",
        "coordinates": [
          [
            [
              18.9706592,
              49.8923425
            ],
            [
              18.9702451,
              49.8922153
            ],
            [
              18.9701736,
              49.8919929
            ],
            [
              18.9702295,
              49.891909
            ],
            [
              18.9721166,
              49.8916477
            ],
            [
              18.9722094,
              49.8915441
            ],
            [
              18.972062,
              49.8910561
            ],
            [
              18.9722156,
              49.8910092
            ],
            [
              18.9736108,
              49.8908617
            ],
            [
              18.9735953,
              49.8908746
            ],
            [
              18.9736771,
              49.8910698
            ],
            [
              18.9743453,
              49.8914315
            ],
            [
              18.9753258,
              49.8916509
            ],
            [
              18.9762503,
              49.891839
            ],
            [
              18.9773368,
              49.8918953
            ],
            [
              18.9774618,
              49.8919856
            ],
            [
              18.9764873,
              49.8920487
            ],
            [
              18.9719625,
              49.8921558
            ],
            [
              18.9711009,
              49.8922693
            ],
            [
              18.970864,
              49.8923576
            ],
            [
              18.9706592,
              49.8923425
            ]
          ]
        ]
      },
      "properties": {
        "natural": "water",
        "water": "pond",
        "osm_id": 54620117
      }
    },
    {
      "type": "Feature",
      "geometry": {
        "type": "Polygon",
        "coordinates": [
          [
            [
              18.9731098,
              49.8931391
            ],
            [
              18.97296,
              49.8924761
            ],
            [
              18.9728362,
              49.8923166
            ],
            [
              18.9718592,
              49.8923544
            ],
            [
              18.9711492,
              49.8924677
            ],
            [
              18.9710841,
              49.8925096
            ],
            [
              18.9711036,
              49.8925474
            ],
            [
              18.9713512,
              49.892602
            ],
            [
              18.9720416,
              49.8928076
            ],
            [
              18.9729925,
              49.8931391
            ],
            [
              18.9730577,
              49.89316
            ],
            [
              18.9731098,
              49.8931391
            ]
          ]
        ]
      },
      "properties": {
        "natural": "water",
        "water": "basin",
        "osm_id": 238696635
      }
    },
    {
      "type": "Feature",
      "geometry": {
        "type": "Polygon",
        "coordinates": [
          [
            [
              18.987598,
              49.8961772
            ],
            [
              18.987703,
              49.8959977
            ],
            [
              18.9878395,
              49.8958826
            ],
            [
              18.987954,
              49.8957578
            ],
            [
              18.9880307,
              49.8955778
            ],
            [
              18.9880893,
              49.8953863
            ],
            [
              18.9883165,
              49.8954357
            ],
            [
              18.9884998,
              49.8954927
            ],
            [
              18.9884954,
              49.8955991
            ],
            [
              18.988412,
              49.89611
            ],
            [
              18.9883702,
              49.8962578
            ],
            [
              18.987598,
              49.8961772
            ]
          ]
        ]
      },
      "properties": {
        "natural": "water",
        "water": "basin",
        "osm_id": 238296333
      }
    },
    {
      "type": "Feature",
      "geometry": {
        "type": "Polygon",
        "coordinates": [
          [
            [
              18.988084,
              49.8953144
            ],
            [
              18.9881634,
              49.8945636
            ],
            [
              18.9882094,
              49.8945144
            ],
            [
              18.9882992,
              49.8945141
            ],
            [
              18.9886279,
              49.89456
            ],
            [
              18.9887577,
              49.8945936
            ],
            [
              18.988798,
              49.8946327
            ],
            [
              18.9888053,
              49.8947523
            ],
            [
              18.988684,
              49.8953549
            ],
            [
              18.9885971,
              49.8953776
            ],
            [
              18.988084,
              49.8953144
            ]
          ]
        ]
      },
      "properties": {
        "natural": "water",
        "water": "basin",
        "osm_id": 238296334
      }
    },
    {
      "type": "Feature",
      "geometry": {
        "type": "Polygon",
        "coordinates": [
          [
            [
              18.9884198,
              49.8972124
            ],
            [
              18.9885442,
              49.8973607
            ],
            [
              18.9885539,
              49.8975665
            ],
            [
              18.9884691,
              49.8978341
            ],
            [
              18.9883082,
              49.8980622
            ],
            [
              18.9881607,
              49.898133
            ],
            [
              18.9877573,
              49.8981073
            ],
            [
              18.9875706,
              49.8982522
            ],
            [
              18.9874553,
              49.8982125
            ],
            [
              18.9873802,
              49.8980587
            ],
            [
              18.9868196,
              49.8978963
            ],
            [
              18.9867535,
              49.8978111
            ],
            [
              18.9856354,
              49.8977952
            ],
            [
              18.9856022,
              49.8975221
            ],
            [
              18.985806,
              49.8972988
            ],
            [
              18.9868507,
              49.8975078
            ],
            [
              18.9870304,
              49.8972918
            ],
            [
              18.9869607,
              49.8970033
            ],
            [
              18.9875373,
              49.8970828
            ],
            [
              18.988107,
              49.8971378
            ],
            [
              18.9884198,
              49.8972124
            ]
          ]
        ]
      },
      "properties": {
        "natural": "water",
        "water": "reservoir",
        "osm_id": 258059404
      }
    },
    {
      "type": "Feature",
      "geometry": {
        "type": "Polygon",
        "coordinates": [
          [
            [
              18.9523784,
              49.888254
            ],
            [
              18.9536424,
              49.8881079
            ],
            [
              18.9537559,
              49.8880347
            ],
            [
              18.9540499,
              49.885538
            ],
            [
              18.953726,
              49.885407
            ],
            [
              18.9531991,
              49.8857365
            ],
            [
              18.9527858,
              49.8858044
            ],
            [
              18.9523555,
              49.8867883
            ],
            [
              18.9520476,
              49.8868562
            ],
            [
              18.9520636,
              49.8870813
            ],
            [
              18.9522011,
              49.8872907
            ],
            [
              18.9521439,
              49.8877095
            ],
            [
              18.9523784,
              49.888254
            ]
          ],
          [
            [
              18.952995,
              49.8873434
            ],
            [
              18.9531489,
              49.8873749
            ],
            [
              18.9532867,
              49.8872703
            ],
            [
              18.9532058,
              49.8871603
            ],
            [
              18.9530762,
              49.8871602
            ],
            [
              18.9529467,
              49.8870555
            ],
            [
              18.9528494,
              49.8870973
            ],
            [
              18.9528493,
              49.8872439
            ],
            [
              18.952995,
              49.8873434
            ]
          ]
        ]
      },
      "properties": {
        "natural": "water",
        "water": "basin",
        "osm_id": 1742952,
        "note": "zbiornik z wyspa"
      }
    }
  ]
}