{"type": "FeatureCollection", "features": [{"type": "Feature", "geometry": {"type": "Polygon", "coordinates": [[[18.9426296, 49.89547], [18.9427044, 49.8954432], [18.9421, 49.8937741], [18.9421685, 49.8920892], [18.9419693, 49.8919657], [18.9397265, 49.8920933], [18.9401966, 49.894739], [18.9410186, 49.8950399], [18.9416415, 49.8951261], [18.9426296, 49.89547]]]}, "properties": {"natural": "water", "water": "basin", "name": "Uroczysko Karpiowe", "osm_id": 109781569, "adres": "ul. Zabrzeska 11a, 43-518 Ligota"}}]}